TELEOS-2                
1 56310U 23057C   26067.64596106  .00000863  00000+0  15043-4 0  9993
2 56310   9.9874 216.2411 0000803 295.2771  64.7359 14.96380118157711
STARLINK-6044           
1 56479U 23064AH  26068.55968539 -.00000721  00000+0 -52639-4 0  9998
2 56479  69.9997 124.6333 0003376 269.6306  90.4466 14.98326461155728
